FLOCK 4G-13             
1 62621U 25009N   26068.70638971  .00053076  00000+0  16695-2 0  9995
2 62621  97.4019 151.0918 0003801 292.7207  67.3633 15.32770015 63700
STARLINK-35329          
1 65908U 25224AC  26068.22542313  .00042867  00000+0  14505-2 0  9990
2 65908  53.1616  13.4660 0001157  87.6875 272.4259 15.30213963 24793
